OBJECT_NAME,OBJECT_ID,EPOCH,MEAN_MOTION,ECCENTRICITY,INCLINATION,RA_OF_ASC_NODE,ARG_OF_PERICENTER,MEAN_ANOMALY,EPHEMERIS_TYPE,CLASSIFICATION_TYPE,NORAD_CAT_ID,ELEMENT_SET_NO,REV_AT_EPOCH,BSTAR,MEAN_MOTION_DOT,MEAN_MOTION_DDOT
ONEWEB-0158,2021-025N,2026-06-28T22:27:35.548704,13.13471339,.00016557,87.8974,317.8788,102.6103,257.5211,0,U,48054,999,25517,-.59000678E-3,-.203E-5,0
ONEWEB-0157,2021-025P,2026-06-28T21:14:29.419872,13.13470675,.00022429,87.8969,317.8943,102.8459,257.2921,0,U,48055,999,25510,-.48696557E-3,-.165E-5,0
ONEWEB-0162,2021-025Q,2026-06-28T20:40:09.374304,13.13469471,.00019419,87.8970,317.8995,94.0374,266.0977,0,U,48056,999,25507,-.68342995E-3,-.237E-5,0
ONEWEB-0155,2021-025R,2026-06-28T19:00:23.457024,13.13483086,.00019266,87.8969,317.9096,104.2658,255.8685,0,U,48057,999,25520,-.67799094E-2,-.2463E-4,0
ONEWEB-0149,2021-025S,2026-06-28T21:21:54.893088,13.13202616,.00030418,87.8975,317.8939,43.5536,316.5833,0,U,48058,999,25502,.1514993E+0,.55456E-3,0
ONEWEB-0148,2021-025T,2026-06-28T20:28:09.550848,13.13469752,.00023038,87.8966,317.9075,87.3380,272.8013,0,U,48059,999,25514,-.4424872E-4,-.3E-7,0
ONEWEB-0160,2021-025U,2026-06-28T22:42:12.964032,13.13468479,.00011551,87.8965,317.8851,91.8607,268.2655,0,U,48060,999,25510,-.11084241E-2,-.392E-5,0
ONEWEB-0163,2021-025V,2026-06-28T22:20:17.136960,13.13468051,.00021411,87.8972,317.8832,102.1172,258.0197,0,U,48061,999,25522,-.48378056E-4,-.5E-7,0
ONEWEB-0159,2021-025W,2026-06-28T22:08:06.285408,13.13467830,.00020789,87.8975,317.8789,102.5539,257.5823,0,U,48062,999,25514,.44617002E-3,.176E-5,0
ONEWEB-0164,2021-025X,2026-06-28T21:41:17.259072,13.13470654,.00017893,87.8975,317.8890,98.9546,261.1786,0,U,48063,999,25512,.60883373E-3,.235E-5,0
ONEWEB-0167,2021-025Y,2026-06-28T22:21:31.135968,13.13468069,.00021327,87.8964,317.8920,116.5088,243.6260,0,U,48064,999,25511,-.26725487E-3,-.85E-6,0
ONEWEB-0166,2021-025Z,2026-06-28T21:04:43.594176,13.13472326,.00019117,87.8975,317.8754,97.5979,262.5367,0,U,48065,999,25518,-.9260543E-3,-.325E-5,0
ONEWEB-0151,2021-025AA,2026-06-28T21:07:08.818752,13.13470024,.00018465,87.8966,317.8910,102.9325,257.2010,0,U,48066,999,25512,-.12534064E-2,-.445E-5,0
ONEWEB-0170,2021-025AB,2026-06-28T21:19:19.728192,13.13468785,.00013999,87.8969,317.8912,108.4074,251.7208,0,U,48067,999,25508,-.42929422E-3,-.144E-5,0
ONEWEB-0168,2021-025AC,2026-06-28T19:07:41.813472,13.13468783,.00018953,87.8974,317.9099,100.5587,259.5756,0,U,48068,999,25508,-.10083244E-2,-.355E-5,0
ONEWEB-0173,2021-025AD,2026-06-28T22:34:54.688800,13.13470173,.00021594,87.8968,317.8820,105.9273,254.2094,0,U,48069,999,25534,-.67802401E-3,-.235E-5,0
ONEWEB-0171,2021-025AE,2026-06-28T21:38:50.836992,13.13471321,.00018076,87.8963,317.8978,101.3961,258.7372,0,U,48070,999,25515,.61690616E-3,.238E-5,0
ONEWEB-0172,2021-025AF,2026-06-28T21:09:35.839584,13.13469686,.00019297,87.8970,317.8925,103.7920,256.3424,0,U,48071,999,25604,-.77297216E-3,-.27E-5,0
ONEWEB-0174,2021-025AG,2026-06-28T22:32:28.711680,13.13470671,.00019987,87.8969,317.8800,96.0032,264.1325,0,U,48072,999,25537,-.83674165E-3,-.293E-5,0
ONEWEB-0175,2021-025AH,2026-06-28T21:26:39.560352,13.13471732,.00017258,87.8974,317.8741,109.0182,251.1135,0,U,48073,999,25502,-.4427969E-5,.11E-6,0
ONEWEB-0177,2021-025AJ,2026-06-28T21:43:43.852224,13.13469362,.00021042,87.8970,317.8898,97.8770,262.2598,0,U,48074,999,25521,.66991101E-3,.257E-5,0
ONEWEB-0178,2021-025AK,2026-06-28T20:21:03.508992,13.13468333,.00019396,87.8960,317.9123,106.5271,253.6071,0,U,48075,999,25525,.33308886E-3,.134E-5,0
ONEWEB-0108,2021-025AL,2026-06-28T21:12:01.796832,13.13471480,.00017887,87.8974,317.8860,91.8335,268.2999,0,U,48076,999,25518,-.65287946E-3,-.226E-5,0
ONEWEB-0169,2021-025AM,2026-06-28T20:08:39.478848,13.13470188,.00019937,87.8967,317.9018,96.6121,263.5236,0,U,48077,999,25383,.62581051E-3,.241E-5,0
ONEWEB-0176,2021-031A,2026-06-28T19:48:00.686880,13.14503848,.00019921,87.8972,287.3801,103.9360,256.1992,0,U,48210,999,24984,.55557251E-3,.219E-5,0
ONEWEB-0184,2021-031B,2026-06-28T19:09:11.272032,13.14503754,.00020399,87.8979,287.3870,124.8459,235.2863,0,U,48211,999,24981,-.52031822E-3,-.18E-5,0
ONEWEB-0179,2021-031C,2026-06-28T19:37:13.010016,14.25532699,.02195752,87.8994,284.1733,218.9440,139.5765,0,U,48212,999,25070,.91529902E-4,.297E-5,0
ONEWEB-0180,2021-031D,2026-06-28T19:13:46.266816,13.14505376,.00023161,87.8980,287.3823,106.9694,253.1689,0,U,48213,999,24974,-.46709433E-3,-.16E-5,0
ONEWEB-0218,2021-031E,2026-06-28T19:45:44.544672,13.14502566,.00023384,87.8980,287.3775,122.4666,237.6691,0,U,48214,999,24990,.55918256E-3,.22E-5,0
ONEWEB-0209,2021-031F,2026-06-28T19:29:44.866176,13.14501919,.00022036,87.8968,287.3956,100.3047,259.8331,0,U,48215,999,24990,.28485205E-3,.118E-5,0
