[
  {
    "name": "ONEWEB-0158",
    "noradId": "48054",
    "line1": "1 48054U 21025N   26179.93582811 -.00000203  00000+0 -59001-3 0  9997",
    "line2": "2 48054  87.8974 317.8788 0001655 102.6103 257.5211 13.13471339255176"
  },
  {
    "name": "ONEWEB-0157",
    "noradId": "48055",
    "line1": "1 48055U 21025P   26179.88506273 -.00000165  00000+0 -48697-3 0  9996",
    "line2": "2 48055  87.8969 317.8943 0002242 102.8459 257.2921 13.13470675255103"
  },
  {
    "name": "ONEWEB-0162",
    "noradId": "48056",
    "line1": "1 48056U 21025Q   26179.86121961 -.00000237  00000+0 -68343-3 0  9992",
    "line2": "2 48056  87.8970 317.8995 0001941  94.0374 266.0977 13.13469471255073"
  },
  {
    "name": "ONEWEB-0155",
    "noradId": "48057",
    "line1": "1 48057U 21025R   26179.79193816 -.00002463  00000+0 -67799-2 0  9999",
    "line2": "2 48057  87.8969 317.9096 0001926 104.2658 255.8685 13.13483086255202"
  },
  {
    "name": "ONEWEB-0149",
    "noradId": "48058",
    "line1": "1 48058U 21025S   26179.89021867  .00055456  00000+0  15150+0 0  9996",
    "line2": "2 48058  87.8975 317.8939 0003041  43.5536 316.5833 13.13202616255023"
  },
  {
    "name": "ONEWEB-0148",
    "noradId": "48059",
    "line1": "1 48059U 21025T   26179.85288832 -.00000003  00000+0 -44249-4 0  9996",
    "line2": "2 48059  87.8966 317.9075 0002303  87.3380 272.8013 13.13469752255142"
  },
  {
    "name": "ONEWEB-0160",
    "noradId": "48060",
    "line1": "1 48060U 21025U   26179.94598338 -.00000392  00000+0 -11084-2 0  9993",
    "line2": "2 48060  87.8965 317.8851 0001155  91.8607 268.2655 13.13468479255102"
  },
  {
    "name": "ONEWEB-0163",
    "noradId": "48061",
    "line1": "1 48061U 21025V   26179.93075390 -.00000005  00000+0 -48378-4 0  9990",
    "line2": "2 48061  87.8972 317.8832 0002141 102.1172 258.0197 13.13468051255226"
  },
  {
    "name": "ONEWEB-0159",
    "noradId": "48062",
    "line1": "1 48062U 21025W   26179.92229497  .00000176  00000+0  44617-3 0  9997",
    "line2": "2 48062  87.8975 317.8789 0002078 102.5539 257.5823 13.13467830255146"
  },
  {
    "name": "ONEWEB-0164",
    "noradId": "48063",
    "line1": "1 48063U 21025X   26179.90367198  .00000235  00000+0  60883-3 0  9996",
    "line2": "2 48063  87.8975 317.8890 0001789  98.9546 261.1786 13.13470654255129"
  },
  {
    "name": "ONEWEB-0167",
    "noradId": "48064",
    "line1": "1 48064U 21025Y   26179.93161037 -.00000085  00000+0 -26725-3 0  9996",
    "line2": "2 48064  87.8964 317.8920 0002132 116.5088 243.6260 13.13468069255111"
  },
  {
    "name": "ONEWEB-0166",
    "noradId": "48065",
    "line1": "1 48065U 21025Z   26179.87828234 -.00000325  00000+0 -92605-3 0  9996",
    "line2": "2 48065  87.8975 317.8754 0001911  97.5979 262.5367 13.13472326255186"
  },
  {
    "name": "ONEWEB-0151",
    "noradId": "48066",
    "line1": "1 48066U 21025AA  26179.87996318 -.00000445  00000+0 -12534-2 0  9991",
    "line2": "2 48066  87.8966 317.8910 0001846 102.9325 257.2010 13.13470024255127"
  },
  {
    "name": "ONEWEB-0170",
    "noradId": "48067",
    "line1": "1 48067U 21025AB  26179.88842278 -.00000144  00000+0 -42929-3 0  9996",
    "line2": "2 48067  87.8969 317.8912 0001399 108.4074 251.7208 13.13468785255082"
  },
  {
    "name": "ONEWEB-0168",
    "noradId": "48068",
    "line1": "1 48068U 21025AC  26179.79701173 -.00000355  00000+0 -10083-2 0  9994",
    "line2": "2 48068  87.8974 317.9099 0001895 100.5587 259.5756 13.13468783255081"
  },
  {
    "name": "ONEWEB-0173",
    "noradId": "48069",
    "line1": "1 48069U 21025AD  26179.94091075 -.00000235  00000+0 -67802-3 0  9994",
    "line2": "2 48069  87.8968 317.8820 0002159 105.9273 254.2094 13.13470173255343"
  },
  {
    "name": "ONEWEB-0171",
    "noradId": "48070",
    "line1": "1 48070U 21025AE  26179.90197728  .00000238  00000+0  61691-3 0  9995",
    "line2": "2 48070  87.8963 317.8978 0001807 101.3961 258.7372 13.13471321255150"
  },
  {
    "name": "ONEWEB-0172",
    "noradId": "48071",
    "line1": "1 48071U 21025AF  26179.88166481 -.00000270  00000+0 -77297-3 0  9992",
    "line2": "2 48071  87.8970 317.8925 0001929 103.7920 256.3424 13.13469686256049"
  },
  {
    "name": "ONEWEB-0174",
    "noradId": "48072",
    "line1": "1 48072U 21025AG  26179.93922120 -.00000293  00000+0 -83674-3 0  9990",
    "line2": "2 48072  87.8969 317.8800 0001998  96.0032 264.1325 13.13470671255372"
  },
  {
    "name": "ONEWEB-0175",
    "noradId": "48073",
    "line1": "1 48073U 21025AH  26179.89351343  .00000011  00000+0 -44280-5 0  9998",
    "line2": "2 48073  87.8974 317.8741 0001725 109.0182 251.1135 13.13471732255028"
  },
  {
    "name": "ONEWEB-0177",
    "noradId": "48074",
    "line1": "1 48074U 21025AJ  26179.90536866  .00000257  00000+0  66991-3 0  9998",
    "line2": "2 48074  87.8970 317.8898 0002104  97.8770 262.2598 13.13469362255210"
  },
  {
    "name": "ONEWEB-0178",
    "noradId": "48075",
    "line1": "1 48075U 21025AK  26179.84795728  .00000134  00000+0  33309-3 0  9997",
    "line2": "2 48075  87.8960 317.9123 0001939 106.5271 253.6071 13.13468333255252"
  },
  {
    "name": "ONEWEB-0108",
    "noradId": "48076",
    "line1": "1 48076U 21025AL  26179.88335413 -.00000226  00000+0 -65288-3 0  9998",
    "line2": "2 48076  87.8974 317.8860 0001788  91.8335 268.2999 13.13471480255184"
  },
  {
    "name": "ONEWEB-0169",
    "noradId": "48077",
    "line1": "1 48077U 21025AM  26179.83934582  .00000241  00000+0  62581-3 0  9994",
    "line2": "2 48077  87.8967 317.9018 0001993  96.6121 263.5236 13.13470188253833"
  },
  {
    "name": "ONEWEB-0176",
    "noradId": "48210",
    "line1": "1 48210U 21031A   26179.82500795  .00000219  00000+0  55557-3 0  9994",
    "line2": "2 48210  87.8972 287.3801 0001992 103.9360 256.1992 13.14503848249848"
  },
  {
    "name": "ONEWEB-0184",
    "noradId": "48211",
    "line1": "1 48211U 21031B   26179.79804713 -.00000180  00000+0 -52032-3 0  9992",
    "line2": "2 48211  87.8979 287.3870 0002039 124.8459 235.2863 13.14503754249814"
  },
  {
    "name": "ONEWEB-0179",
    "noradId": "48212",
    "line1": "1 48212U 21031C   26179.81751169  .00000297  00000+0  91530-4 0  9996",
    "line2": "2 48212  87.8994 284.1733 0219575 218.9440 139.5765 14.25532699250705"
  },
  {
    "name": "ONEWEB-0180",
    "noradId": "48213",
    "line1": "1 48213U 21031D   26179.80122994 -.00000160  00000+0 -46709-3 0  9992",
    "line2": "2 48213  87.8980 287.3823 0002316 106.9694 253.1689 13.14505376249745"
  },
  {
    "name": "ONEWEB-0218",
    "noradId": "48214",
    "line1": "1 48214U 21031E   26179.82343223  .00000220  00000+0  55918-3 0  9992",
    "line2": "2 48214  87.8980 287.3775 0002338 122.4666 237.6691 13.14502566249904"
  },
  {
    "name": "ONEWEB-0209",
    "noradId": "48215",
    "line1": "1 48215U 21031F   26179.81232484  .00000118  00000+0  28485-3 0  9993",
    "line2": "2 48215  87.8968 287.3956 0002203 100.3047 259.8331 13.14501919249909"
  }
]